{"type": "FeatureCollection", "features": [ {"type": "Feature", "properties": {"norad_id": 66653, "name": "2025-274D", "group": "last-30-days", "lat": -79.22963113695921, "lon": -45.83866613959875, "alt_km": 591.6537747481525, "timestamp": "2025-12-07T05:38:08.686025+00:00", "meta": {"OBJECT_NAME": "2025-274D", "OBJECT_ID": "2025-274D", "EPOCH": "2025-12-06T12:17:51.211392", "MEAN_MOTION": 14.91858206, "ECCENTRICITY": 0.00112287, "INCLINATION": 97.7389, "RA_OF_ASC_NODE": 267.818, "ARG_OF_PERICENTER": 277.7634, "MEAN_ANOMALY": 82.231, "EPHEMERIS_TYPE": 0, "CLASSIFICATION_TYPE": "U", "NORAD_CAT_ID": 66653, "ELEMENT_SET_NO": 999, "REV_AT_EPOCH": 147, "BSTAR": 0.00036958049, "MEAN_MOTION_DOT": 3.681e-05, "MEAN_MOTION_DDOT": 0}, "tle": {"line1": "1 66653U 25274D   25340.51239828  .00003681  00000+0  36958-3 0  9999", "line2": "2 66653  97.7389 267.8180 0011228 277.7634  82.2310 14.91858206  1475"}}, "geometry": {"type": "Point", "coordinates": [-45.83866613959875, -79.22963113695921]}}, {"type": "Feature", "properties": {"norad_id": 66654, "name": "JACK E", "group": "last-30-days", "lat": -74.26988209336392, "lon": -62.59809372685112, "alt_km": 590.7370078556833, "timestamp": "2025-12-07T05:38:08.686038+00:00", "meta": {"OBJECT_NAME": "JACK E", "OBJECT_ID": "2025-274E", "EPOCH": "2025-12-06T12:16:18.064416", "MEAN_MOTION": 14.92029894, "ECCENTRICITY": 0.00118143, "INCLINATION": 97.7393, "RA_OF_ASC_NODE": 267.8198, "ARG_OF_PERICENTER": 279.1697, "MEAN_ANOMALY": 80.8185, "EPHEMERIS_TYPE": 0, "CLASSIFICATION_TYPE": "U", "NORAD_CAT_ID": 66654, "ELEMENT_SET_NO": 999, "REV_AT_EPOCH": 147, "BSTAR": 0.00043186765, "MEAN_MOTION_DOT": 4.331e-05, "MEAN_MOTION_DDOT": 0}, "tle": {"line1": "1 66654U 25274E   25340.51132019  .00004331  00000+0  43187-3 0  9999", "line2": "2 66654  97.7393 267.8198 0011814 279.1697  80.8185 14.92029894  1474"}}, "geometry": {"type": "Point", "coordinates": [-62.59809372685112, -74.26988209336392]}}, {"type": "Feature", "properties": {"norad_id": 66655, "name": "2025-274F", "group": "last-30-days", "lat": -67.84911270566559, "lon": -71.9563697080656, "alt_km": 593.2625428818619, "timestamp": "2025-12-07T05:38:08.686048+00:00", "meta": {"OBJECT_NAME": "2025-274F", "OBJECT_ID": "2025-274F", "EPOCH": "2025-12-06T12:14:39.780960", "MEAN_MOTION": 14.92404459, "ECCENTRICITY": 0.00076463, "INCLINATION": 97.7348, "RA_OF_ASC_NODE": 267.8281, "ARG_OF_PERICENTER": 327.0355, "MEAN_ANOMALY": 33.0387, "EPHEMERIS_TYPE": 0, "CLASSIFICATION_TYPE": "U", "NORAD_CAT_ID": 66655, "ELEMENT_SET_NO": 999, "REV_AT_EPOCH": 147, "BSTAR": 0.00032876017, "MEAN_MOTION_DOT": 3.312e-05, "MEAN_MOTION_DDOT": 0}, "tle": {"line1": "1 66655U 25274F   25340.51018265  .00003312  00000+0  32876-3 0  9997", "line2": "2 66655  97.7348 267.8281 0007646 327.0355  33.0387 14.92404459  1478"}}, "geometry": {"type": "Point", "coordinates": [-71.9563697080656, -67.84911270566559]}}, {"type": "Feature", "properties": {"norad_id": 66656, "name": "2025-274G", "group": "last-30-days", "lat": -68.0449081733926, "lon": -71.75156450199762, "alt_km": 589.7856845139013, "timestamp": "2025-12-07T05:38:08.686058+00:00", "meta": {"OBJECT_NAME": "2025-274G", "OBJECT_ID": "2025-274G", "EPOCH": "2025-12-06T13:51:08.777088", "MEAN_MOTION": 14.92217481, "ECCENTRICITY": 0.00124552, "INCLINATION": 97.7391, "RA_OF_ASC_NODE": 267.8866, "ARG_OF_PERICENTER": 280.6757, "MEAN_ANOMALY": 79.3059, "EPHEMERIS_TYPE": 0, "CLASSIFICATION_TYPE": "U", "NORAD_CAT_ID": 66656, "ELEMENT_SET_NO": 999, "REV_AT_EPOCH": 148, "BSTAR": 0.00049254934, "MEAN_MOTION_DOT": 4.972e-05, "MEAN_MOTION_DDOT": 0}, "tle": {"line1": "1 66656U 25274G   25340.57718492  .00004972  00000+0  49255-3 0  9995", "line2": "2 66656  97.7391 267.8866 0012455 280.6757  79.3059 14.92217481  1487"}}, "geometry": {"type": "Point", "coordinates": [-71.75156450199762, -68.0449081733926]}}, {"type": "Feature", "properties": {"norad_id": 66657, "name": "SPIRONE", "group": "last-30-days", "lat": -61.654711399511505, "lon": -76.86372673013699, "alt_km": 589.9805615135019, "timestamp": "2025-12-07T05:38:08.686068+00:00", "meta": {"OBJECT_NAME": "SPIRONE", "OBJECT_ID": "2025-274H", "EPOCH": "2025-12-06T12:12:53.945280", "MEAN_MOTION": 14.92396474, "ECCENTRICITY": 0.00109747, "INCLINATION": 97.7389, "RA_OF_ASC_NODE": 267.8223, "ARG_OF_PERICENTER": 300.015, "MEAN_ANOMALY": 59.998, "EPHEMERIS_TYPE": 0, "CLASSIFICATION_TYPE": "U", "NORAD_CAT_ID": 66657, "ELEMENT_SET_NO": 999, "REV_AT_EPOCH": 147, "BSTAR": 0.0004858557, "MEAN_MOTION_DOT": 4.924e-05, "MEAN_MOTION_DDOT": 0}, "tle": {"line1": "1 66657U 25274H   25340.50895770  .00004924  00000+0  48586-3 0  9997", "line2": "2 66657  97.7389 267.8223 0010974 300.0150  59.9980 14.92396474  1476"}}, "geometry": {"type": "Point", "coordinates": [-76.86372673013699, -61.654711399511505]}}, {"type": "Feature", "properties": {"norad_id": 66658, "name": "2025-274J", "group": "last-30-days", "lat": -55.23714586404161, "lon": -80.16244191203224, "alt_km": 588.9260855297553, "timestamp": "2025-12-07T05:38:08.686079+00:00", "meta": {"OBJECT_NAME": "2025-274J", "OBJECT_ID": "2025-274J", "EPOCH": "2025-12-06T12:11:14.224128", "MEAN_MOTION": 14.92570037, "ECCENTRICITY": 0.00115574, "INCLINATION": 97.7391, "RA_OF_ASC_NODE": 267.8234, "ARG_OF_PERICENTER": 302.9889, "MEAN_ANOMALY": 57.0218, "EPHEMERIS_TYPE": 0, "CLASSIFICATION_TYPE": "U", "NORAD_CAT_ID": 66658, "ELEMENT_SET_NO": 999, "REV_AT_EPOCH": 147, "BSTAR": 0.00047136021, "MEAN_MOTION_DOT": 4.797e-05, "MEAN_MOTION_DDOT": 0}, "tle": {"line1": "1 66658U 25274J   25340.50780352  .00004797  00000+0  47136-3 0  9995", "line2": "2 66658  97.7391 267.8234 0011557 302.9889  57.0218 14.92570037  1472"}}, "geometry": {"type": "Point", "coordinates": [-80.16244191203224, -55.23714586404161]}}, {"type": "Feature", "properties": {"norad_id": 66659, "name": "JACK K", "group": "last-30-days", "lat": -48.355166936853315, "lon": -82.66152798780419, "alt_km": 587.7535347255862, "timestamp": "2025-12-07T05:38:08.686089+00:00", "meta": {"OBJECT_NAME": "JACK K", "OBJECT_ID": "2025-274K", "EPOCH": "2025-12-06T12:09:28.530144", "MEAN_MOTION": 14.92755789, "ECCENTRICITY": 0.0012286, "INCLINATION": 97.7393, "RA_OF_ASC_NODE": 267.8254, "ARG_OF_PERICENTER": 304.1059, "MEAN_ANOMALY": 55.8994, "EPHEMERIS_TYPE": 0, "CLASSIFICATION_TYPE": "U", "NORAD_CAT_ID": 66659, "ELEMENT_SET_NO": 999, "REV_AT_EPOCH": 147, "BSTAR": 0.00046618459, "MEAN_MOTION_DOT": 4.767e-05, "MEAN_MOTION_DDOT": 0}, "tle": {"line1": "1 66659U 25274K   25340.50658021  .00004767  00000+0  46618-3 0  9994", "line2": "2 66659  97.7393 267.8254 0012286 304.1059  55.8994 14.92755789  1476"}}, "geometry": {"type": "Point", "coordinates": [-82.66152798780419, -48.355166936853315]}}, {"type": "Feature", "properties": {"norad_id": 66660, "name": "K-HERO", "group": "last-30-days", "lat": -42.790527061587056, "lon": -84.22305518423161, "alt_km": 586.8124315704417, "timestamp": "2025-12-07T05:38:08.686099+00:00", "meta": {"OBJECT_NAME": "K-HERO", "OBJECT_ID": "2025-274L", "EPOCH": "2025-12-06T12:08:03.554016", "MEAN_MOTION": 14.92904179, "ECCENTRICITY": 0.00129328, "INCLINATION": 97.7397, "RA_OF_ASC_NODE": 267.8271, "ARG_OF_PERICENTER": 304.6853, "MEAN_ANOMALY": 55.3147, "EPHEMERIS_TYPE": 0, "CLASSIFICATION_TYPE": "U", "NORAD_CAT_ID": 66660, "ELEMENT_SET_NO": 999, "REV_AT_EPOCH": 147, "BSTAR": 0.00045617475, "MEAN_MOTION_DOT": 4.682e-05, "MEAN_MOTION_DDOT": 0}, "tle": {"line1": "1 66660U 25274L   25340.50559669  .00004682  00000+0  45617-3 0  9998", "line2": "2 66660  97.7397 267.8271 0012932 304.6853  55.3147 14.92904179  1470"}}, "geometry": {"type": "Point", "coordinates": [-84.22305518423161, -42.790527061587056]}}, {"type": "Feature", "properties": {"norad_id": 66661, "name": "SNUGLITE-III", "group": "last-30-days", "lat": -37.07627410662531, "lon": -85.55509997608745, "alt_km": 585.8855173906923, "timestamp": "2025-12-07T05:38:08.686111+00:00", "meta": {"OBJECT_NAME": "SNUGLITE-III", "OBJECT_ID": "2025-274M", "EPOCH": "2025-12-06T12:06:36.508608", "MEAN_MOTION": 14.93053395, "ECCENTRICITY": 0.00135673, "INCLINATION": 97.7393, "RA_OF_ASC_NODE": 267.8282, "ARG_OF_PERICENTER": 305.7513, "MEAN_ANOMALY": 54.2444, "EPHEMERIS_TYPE": 0, "CLASSIFICATION_TYPE": "U", "NORAD_CAT_ID": 66661, "ELEMENT_SET_NO": 999, "REV_AT_EPOCH": 147, "BSTAR": 0.00044921114, "MEAN_MOTION_DOT": 4.628e-05, "MEAN_MOTION_DDOT": 0}, "tle": {"line1": "1 66661U 25274M   25340.50458922  .00004628  00000+0  44921-3 0  9996", "line2": "2 66661  97.7393 267.8282 0013567 305.7513  54.2444 14.93053395  1473"}}, "geometry": {"type": "Point", "coordinates": [-85.55509997608745, -37.07627410662531]}}, {"type": "Feature", "properties": {"norad_id": 66662, "name": "2025-274N", "group": "last-30-days", "lat": -34.721858824448134, "lon": -86.04473821115752, "alt_km": 585.4997266501732, "timestamp": "2025-12-07T05:38:08.686120+00:00", "meta": {"OBJECT_NAME": "2025-274N", "OBJECT_ID": "2025-274N", "EPOCH": "2025-12-06T05:39:59.423616", "MEAN_MOTION": 14.93101008, "ECCENTRICITY": 0.00140324, "INCLINATION": 97.7392, "RA_OF_ASC_NODE": 267.565, "ARG_OF_PERICENTER": 305.8521, "MEAN_ANOMALY": 54.1395, "EPHEMERIS_TYPE": 0, "CLASSIFICATION_TYPE": "U", "NORAD_CAT_ID": 66662, "ELEMENT_SET_NO": 999, "REV_AT_EPOCH": 143, "BSTAR": 0.00031672786, "MEAN_MOTION_DOT": 3.25e-05, "MEAN_MOTION_DDOT": 0}, "tle": {"line1": "1 66662U 25274N   25340.23610444  .00003250  00000+0  31673-3 0  9996", "line2": "2 66662  97.7392 267.5650 0014032 305.8521  54.1395 14.93101008  1432"}}, "geometry": {"type": "Point", "coordinates": [-86.04473821115752, -34.721858824448134]}}]}